{"type": "FeatureCollection", "features": [{"type": "Feature", "properties": {"norad_id": 24876, "name": "GPS BIIR-2  (PRN 13)", "group": "gnss", "lat": 20.650894575287307, "lon": 120.91320235372515, "alt_km": 19960.98981865629, "timestamp": "2025-12-05T18:53:13.524259+00:00", "meta": {"OBJECT_NAME": "GPS BIIR-2  (PRN 13)", "OBJECT_ID": "1997-035A", "EPOCH": "2025-12-05T06:05:41.226432", "MEAN_MOTION": 2.00563469, "ECCENTRICITY": 0.00966975, "INCLINATION": 55.8916, "RA_OF_ASC_NODE": 106.1617, "ARG_OF_PERICENTER": 57.0234, "MEAN_ANOMALY": 303.8648, "EPHEMERIS_TYPE": 0, "CLASSIFICATION_TYPE": "U", "NORAD_CAT_ID": 24876, "ELEMENT_SET_NO": 999, "REV_AT_EPOCH": 20806, "BSTAR": 0, "MEAN_MOTION_DOT": 4e-08, "MEAN_MOTION_DDOT": 0}, "tle": {"line1": "1 24876U 97035A   25339.25394938  .00000004  00000+0  00000+0 0  9998", "line2": "2 24876  55.8916 106.1617 0096697  57.0234 303.8648  2.00563469208066"}}, "geometry": {"type": "Point", "coordinates": [120.91320235372515, 20.650894575287307]}}, {"type": "Feature", "properties": {"norad_id": 26360, "name": "GPS BIIR-4  (PRN 20)", "group": "gnss", "lat": 46.799597488718426, "lon": 159.0274874962914, "alt_km": 20233.765568160332, "timestamp": "2025-12-05T18:53:13.524303+00:00", "meta": {"OBJECT_NAME": "GPS BIIR-4  (PRN 20)", "OBJECT_ID": "2000-025A", "EPOCH": "2025-12-05T03:00:42.740352", "MEAN_MOTION": 2.00568182, "ECCENTRICITY": 0.00388084, "INCLINATION": 55.0407, "RA_OF_ASC_NODE": 27.146, "ARG_OF_PERICENTER": 241.2501, "MEAN_ANOMALY": 118.7163, "EPHEMERIS_TYPE": 0, "CLASSIFICATION_TYPE": "U", "NORAD_CAT_ID": 26360, "ELEMENT_SET_NO": 999, "REV_AT_EPOCH": 18738, "BSTAR": 0, "MEAN_MOTION_DOT": -7.4e-07, "MEAN_MOTION_DDOT": 0}, "tle": {"line1": "1 26360U 00025A   25339.12549468 -.00000074  00000+0  00000+0 0  9995", "line2": "2 26360  55.0407  27.1460 0038808 241.2501 118.7163  2.00568182187388"}}, "geometry": {"type": "Point", "coordinates": [159.0274874962914, 46.799597488718426]}}, {"type": "Feature", "properties": {"norad_id": 26407, "name": "GPS BIIR-5  (PRN 22)", "group": "gnss", "lat": -33.57595484575632, "lon": -164.95415814494658, "alt_km": 19863.02453510802, "timestamp": "2025-12-05T18:53:13.524322+00:00", "meta": {"OBJECT_NAME": "GPS BIIR-5  (PRN 22)", "OBJECT_ID": "2000-040A", "EPOCH": "2025-12-05T02:25:59.416032", "MEAN_MOTION": 2.00567737, "ECCENTRICITY": 0.01264283, "INCLINATION": 54.8927, "RA_OF_ASC_NODE": 222.8729, "ARG_OF_PERICENTER": 301.6688, "MEAN_ANOMALY": 240.4646, "EPHEMERIS_TYPE": 0, "CLASSIFICATION_TYPE": "U", "NORAD_CAT_ID": 26407, "ELEMENT_SET_NO": 999, "REV_AT_EPOCH": 18605, "BSTAR": 0, "MEAN_MOTION_DOT": 5.6e-07, "MEAN_MOTION_DDOT": 0}, "tle": {"line1": "1 26407U 00040A   25339.10138213  .00000056  00000+0  00000+0 0  9993", "line2": "2 26407  54.8927 222.8729 0126428 301.6688 240.4646  2.00567737186056"}}, "geometry": {"type": "Point", "coordinates": [-164.95415814494658, -33.57595484575632]}}, {"type": "Feature", "properties": {"norad_id": 27663, "name": "GPS BIIR-8  (PRN 16)", "group": "gnss", "lat": 54.73170965297973, "lon": -40.33397781943342, "alt_km": 19883.596777762545, "timestamp": "2025-12-05T18:53:13.524338+00:00", "meta": {"OBJECT_NAME": "GPS BIIR-8  (PRN 16)", "OBJECT_ID": "2003-005A", "EPOCH": "2025-12-03T11:06:59.696352", "MEAN_MOTION": 2.00571298, "ECCENTRICITY": 0.0147085, "INCLINATION": 54.9258, "RA_OF_ASC_NODE": 222.7473, "ARG_OF_PERICENTER": 51.6706, "MEAN_ANOMALY": 163.3527, "EPHEMERIS_TYPE": 0, "CLASSIFICATION_TYPE": "U", "NORAD_CAT_ID": 27663, "ELEMENT_SET_NO": 999, "REV_AT_EPOCH": 16738, "BSTAR": 0, "MEAN_MOTION_DOT": 6.1e-07, "MEAN_MOTION_DDOT": 0}, "tle": {"line1": "1 27663U 03005A   25337.46319093  .00000061  00000+0  00000+0 0  9992", "line2": "2 27663  54.9258 222.7473 0147085  51.6706 163.3527  2.00571298167382"}}, "geometry": {"type": "Point", "coordinates": [-40.33397781943342, 54.73170965297973]}}, {"type": "Feature", "properties": {"norad_id": 28190, "name": "GPS BIIR-11 (PRN 19)", "group": "gnss", "lat": -51.6718376876469, "lon": 165.78060213698112, "alt_km": 20163.927912601604, "timestamp": "2025-12-05T18:53:13.524352+00:00", "meta": {"OBJECT_NAME": "GPS BIIR-11 (PRN 19)", "OBJECT_ID": "2004-009A", "EPOCH": "2025-12-04T10:34:11.811072", "MEAN_MOTION": 2.00560931, "ECCENTRICITY": 0.0108199, "INCLINATION": 54.9938, "RA_OF_ASC_NODE": 283.5535, "ARG_OF_PERICENTER": 167.4954, "MEAN_ANOMALY": 192.2151, "EPHEMERIS_TYPE": 0, "CLASSIFICATION_TYPE": "U", "NORAD_CAT_ID": 28190, "ELEMENT_SET_NO": 999, "REV_AT_EPOCH": 15903, "BSTAR": 0, "MEAN_MOTION_DOT": -4.2e-07, "MEAN_MOTION_DDOT": 0}, "tle": {"line1": "1 28190U 04009A   25338.44041448 -.00000042  00000+0  00000+0 0  9998", "line2": "2 28190  54.9938 283.5535 0108199 167.4954 192.2151  2.00560931159030"}}, "geometry": {"type": "Point", "coordinates": [165.78060213698112, -51.6718376876469]}}, {"type": "Feature", "properties": {"norad_id": 28474, "name": "GPS BIIR-13 (PRN 02)", "group": "gnss", "lat": -37.623765023047234, "lon": -59.67767373762872, "alt_km": 19733.48452003604, "timestamp": "2025-12-05T18:53:13.524365+00:00", "meta": {"OBJECT_NAME": "GPS BIIR-13 (PRN 02)", "OBJECT_ID": "2004-045A", "EPOCH": "2025-12-04T09:39:02.075040", "MEAN_MOTION": 2.00568937, "ECCENTRICITY": 0.0170587, "INCLINATION": 55.2447, "RA_OF_ASC_NODE": 332.7413, "ARG_OF_PERICENTER": 308.8874, "MEAN_ANOMALY": 83.0394, "EPHEMERIS_TYPE": 0, "CLASSIFICATION_TYPE": "U", "NORAD_CAT_ID": 28474, "ELEMENT_SET_NO": 999, "REV_AT_EPOCH": 15452, "BSTAR": 0, "MEAN_MOTION_DOT": -7.2e-07, "MEAN_MOTION_DDOT": 0}, "tle": {"line1": "1 28474U 04045A   25338.40210735 -.00000072  00000+0  00000+0 0  9999", "line2": "2 28474  55.2447 332.7413 0170587 308.8874  83.0394  2.00568937154527"}}, "geometry": {"type": "Point", "coordinates": [-59.67767373762872, -37.623765023047234]}}, {"type": "Feature", "properties": {"norad_id": 28874, "name": "GPS BIIRM-1 (PRN 17)", "group": "gnss", "lat": -55.05600969800948, "lon": -169.4146584481849, "alt_km": 19865.516856546146, "timestamp": "2025-12-05T18:53:13.524379+00:00", "meta": {"OBJECT_NAME": "GPS BIIRM-1 (PRN 17)", "OBJECT_ID": "2005-038A", "EPOCH": "2025-12-02T16:12:27.400896", "MEAN_MOTION": 2.00548806, "ECCENTRICITY": 0.01328204, "INCLINATION": 55.0411, "RA_OF_ASC_NODE": 281.1063, "ARG_OF_PERICENTER": 293.4087, "MEAN_ANOMALY": 250.3584, "EPHEMERIS_TYPE": 0, "CLASSIFICATION_TYPE": "U", "NORAD_CAT_ID": 28874, "ELEMENT_SET_NO": 999, "REV_AT_EPOCH": 14789, "BSTAR": 0, "MEAN_MOTION_DOT": -4.3e-07, "MEAN_MOTION_DDOT": 0}, "tle": {"line1": "1 28874U 05038A   25336.67531714 -.00000043  00000+0  00000+0 0  9994", "line2": "2 28874  55.0411 281.1063 0132820 293.4087 250.3584  2.00548806147896"}}, "geometry": {"type": "Point", "coordinates": [-169.4146584481849, -55.05600969800948]}}, {"type": "Feature", "properties": {"norad_id": 28899, "name": "INMARSAT 4-F2 (SOUTHPAN/PRN 122)", "group": "gnss", "lat": 4.80377849089467, "lon": 141.62949060518469, "alt_km": 35791.24940313578, "timestamp": "2025-12-05T18:53:13.524394+00:00", "meta": {"OBJECT_NAME": "INMARSAT 4-F2 (SOUTHPAN/PRN 122)", "OBJECT_ID": "2005-044A", "EPOCH": "2025-12-04T14:24:30.690144", "MEAN_MOTION": 1.0027192, "ECCENTRICITY": 0.00034581, "INCLINATION": 4.841, "RA_OF_ASC_NODE": 43.6637, "ARG_OF_PERICENTER": 210.8827, "MEAN_ANOMALY": 178.752, "EPHEMERIS_TYPE": 0, "CLASSIFICATION_TYPE": "U", "NORAD_CAT_ID": 28899, "ELEMENT_SET_NO": 999, "REV_AT_EPOCH": 7357, "BSTAR": 0, "MEAN_MOTION_DOT": -2.49e-06, "MEAN_MOTION_DDOT": 0}, "tle": {"line1": "1 28899U 05044A   25338.60035521 -.00000249  00000+0  00000+0 0  9996", "line2": "2 28899   4.8410  43.6637 0003458 210.8827 178.7520  1.00271920 73576"}}, "geometry": {"type": "Point", "coordinates": [141.62949060518469, 4.80377849089467]}}, {"type": "Feature", "properties": {"norad_id": 29486, "name": "GPS BIIRM-2 (PRN 31)", "group": "gnss", "lat": 3.8294355023129847, "lon": -23.709839172204415, "alt_km": 20337.844264666994, "timestamp": "2025-12-05T18:53:13.524407+00:00", "meta": {"OBJECT_NAME": "GPS BIIRM-2 (PRN 31)", "OBJECT_ID": "2006-042A", "EPOCH": "2025-12-04T13:13:00.041088", "MEAN_MOTION": 2.00554363, "ECCENTRICITY": 0.0107357, "INCLINATION": 54.6929, "RA_OF_ASC_NODE": 159.0658, "ARG_OF_PERICENTER": 51.7626, "MEAN_ANOMALY": 309.8697, "EPHEMERIS_TYPE": 0, "CLASSIFICATION_TYPE": "U", "NORAD_CAT_ID": 29486, "ELEMENT_SET_NO": 999, "REV_AT_EPOCH": 14049, "BSTAR": 0, "MEAN_MOTION_DOT": 8.8e-07, "MEAN_MOTION_DDOT": 0}, "tle": {"line1": "1 29486U 06042A   25338.55069492  .00000088  00000+0  00000+0 0  9996", "line2": "2 29486  54.6929 159.0658 0107357  51.7626 309.8697  2.00554363140498"}}, "geometry": {"type": "Point", "coordinates": [-23.709839172204415, 3.8294355023129847]}}, {"type": "Feature", "properties": {"norad_id": 29601, "name": "GPS BIIRM-3 (PRN 12)", "group": "gnss", "lat": -40.167854133223535, "lon": 77.94550965210374, "alt_km": 20374.95753684082, "timestamp": "2025-12-05T18:53:13.524419+00:00", "meta": {"OBJECT_NAME": "GPS BIIRM-3 (PRN 12)", "OBJECT_ID": "2006-052A", "EPOCH": "2025-12-04T23:15:57.837888", "MEAN_MOTION": 2.00572904, "ECCENTRICITY": 0.00875961, "INCLINATION": 54.9722, "RA_OF_ASC_NODE": 221.7066, "ARG_OF_PERICENTER": 87.3581, "MEAN_ANOMALY": 273.7369, "EPHEMERIS_TYPE": 0, "CLASSIFICATION_TYPE": "U", "NORAD_CAT_ID": 29601, "ELEMENT_SET_NO": 999, "REV_AT_EPOCH": 13951, "BSTAR": 0, "MEAN_MOTION_DOT": 5.8e-07, "MEAN_MOTION_DDOT": 0}, "tle": {"line1": "1 29601U 06052A   25338.96941942  .00000058  00000+0  00000+0 0  9997", "line2": "2 29601  54.9722 221.7066 0087596  87.3581 273.7369  2.00572904139515"}}, "geometry": {"type": "Point", "coordinates": [77.94550965210374, -40.167854133223535]}}]}